FLOCK 4H-34             
1 66737U 25276BZ  26200.75707073  .00003742  00000+0  17249-3 0  9998
2 66737  97.4222 274.1019 0003008 158.0876 202.0488 15.20873297 34631
FLOCK 4H-35             
1 66738U 25276CA  26200.73247152  .00003299  00000+0  15195-3 0  9999
2 66738  97.4180 274.0141 0002938 143.1119 217.0319 15.20986958 34678
FLOCK 4H-36             
1 66739U 25276CB  26200.77171462  .00003422  00000+0  15858-3 0  9998
2 66739  97.4229 274.1090 0002905 168.7241 191.4060 15.20752471 35388
