{"fetched_at":"2026-07-20T07:40:25.481Z","source":"https://celestrak.org/NORAD/elements/gp.php?GROUP=planet&FORMAT=JSON","constellation":"superdove","records":[{"OBJECT_NAME":"FLOCK 4H-34","OBJECT_ID":"2025-276BZ","EPOCH":"2026-07-19T18:10:10.911072","CLASSIFICATION_TYPE":"U","MEAN_MOTION":15.20873297,"ECCENTRICITY":0.0003008,"INCLINATION":97.4222,"RA_OF_ASC_NODE":274.1019,"ARG_OF_PERICENTER":158.0876,"MEAN_ANOMALY":202.0488,"EPHEMERIS_TYPE":0,"NORAD_CAT_ID":66737,"ELEMENT_SET_NO":999,"REV_AT_EPOCH":3463,"BSTAR":0.00017249,"MEAN_MOTION_DOT":0.00003742,"MEAN_MOTION_DDOT":0},{"OBJECT_NAME":"FLOCK 4H-35","OBJECT_ID":"2025-276CA","EPOCH":"2026-07-19T17:34:45.539328","CLASSIFICATION_TYPE":"U","MEAN_MOTION":15.20986958,"ECCENTRICITY":0.0002938,"INCLINATION":97.418,"RA_OF_ASC_NODE":274.0141,"ARG_OF_PERICENTER":143.1119,"MEAN_ANOMALY":217.0319,"EPHEMERIS_TYPE":0,"NORAD_CAT_ID":66738,"ELEMENT_SET_NO":999,"REV_AT_EPOCH":3467,"BSTAR":0.00015195,"MEAN_MOTION_DOT":0.00003299,"MEAN_MOTION_DDOT":0},{"OBJECT_NAME":"FLOCK 4H-36","OBJECT_ID":"2025-276CB","EPOCH":"2026-07-19T18:31:16.143168","CLASSIFICATION_TYPE":"U","MEAN_MOTION":15.20752471,"ECCENTRICITY":0.0002905,"INCLINATION":97.4229,"RA_OF_ASC_NODE":274.109,"ARG_OF_PERICENTER":168.7241,"MEAN_ANOMALY":191.406,"EPHEMERIS_TYPE":0,"NORAD_CAT_ID":66739,"ELEMENT_SET_NO":999,"REV_AT_EPOCH":3538,"BSTAR":0.00015858,"MEAN_MOTION_DOT":0.00003422,"MEAN_MOTION_DDOT":0}]}
